{
  "type": "FeatureCollection",
  "features": [
    {
      "type": "Feature",
      "properties": {
        "norad_id": 66495,
        "name": "STARLINK-35832",
        "group": "last-30-days",
        "lat": 25.535965047531008,
        "lon": 162.26615730965347,
        "alt_km": 411.99973264163873,
        "timestamp": "2025-12-11T15:53:38.292689+00:00",
        "meta_object_name": "STARLINK-35832",
        "meta_object_id": "2025-263L",
        "meta_epoch": "2025-12-11T06:00:02.999808",
        "meta_mean_motion": 15.50603336,
        "meta_eccentricity": 0.00016043,
        "meta_inclination": 43.0007,
        "meta_ra_of_asc_node": 133.8357,
        "meta_arg_of_pericenter": 248.9635,
        "meta_mean_anomaly": 6.5452,
        "meta_ephemeris_type": 0,
        "meta_classification_type": "U",
        "meta_norad_cat_id": 66495,
        "meta_element_set_no": 999,
        "meta_rev_at_epoch": 539,
        "meta_bstar": -0.00115783,
        "meta_mean_motion_dot": -0.0006774,
        "meta_mean_motion_ddot": 0,
        "tle_line1": "1 66495U 25263L   25345.25003472 -.00067740  00000+0 -11578-2 0  9999",
        "tle_line2": "2 66495  43.0007 133.8357 0001604 248.9635   6.5452 15.50603336  5395"
      },
      "geometry": {
        "type": "Point",
        "coordinates": [
          162.26615730965347,
          25.535965047531008
        ]
      }
    },
    {
      "type": "Feature",
      "properties": {
        "norad_id": 66496,
        "name": "STARLINK-35909",
        "group": "last-30-days",
        "lat": 26.648134903245325,
        "lon": 164.00064819320843,
        "alt_km": 411.7366501888764,
        "timestamp": "2025-12-11T15:53:38.292699+00:00",
        "meta_object_name": "STARLINK-35909",
        "meta_object_id": "2025-263M",
        "meta_epoch": "2025-12-11T06:00:02.999808",
        "meta_mean_motion": 15.5060237,
        "meta_eccentricity": 0.00015038,
        "meta_inclination": 43.0006,
        "meta_ra_of_asc_node": 133.8305,
        "meta_arg_of_pericenter": 254.0932,
        "meta_mean_anomaly": 3.3337,
        "meta_ephemeris_type": 0,
        "meta_classification_type": "U",
        "meta_norad_cat_id": 66496,
        "meta_element_set_no": 999,
        "meta_rev_at_epoch": 539,
        "meta_bstar": -0.0011883767,
        "meta_mean_motion_dot": -0.000695,
        "meta_mean_motion_ddot": 0,
        "tle_line1": "1 66496U 25263M   25345.25003472 -.00069500  00000+0 -11884-2 0  9996",
        "tle_line2": "2 66496  43.0006 133.8305 0001503 254.0932   3.3337 15.50602370  5398"
      },
      "geometry": {
        "type": "Point",
        "coordinates": [
          164.00064819320843,
          26.648134903245325
        ]
      }
    },
    {
      "type": "Feature",
      "properties": {
        "norad_id": 66497,
        "name": "STARLINK-35899",
        "group": "last-30-days",
        "lat": 27.743219221641628,
        "lon": 165.77641884369942,
        "alt_km": 411.47179866967144,
        "timestamp": "2025-12-11T15:53:38.292710+00:00",
        "meta_object_name": "STARLINK-35899",
        "meta_object_id": "2025-263N",
        "meta_epoch": "2025-12-11T06:00:02.999808",
        "meta_mean_motion": 15.50610511,
        "meta_eccentricity": 0.00015316,
        "meta_inclination": 43.0007,
        "meta_ra_of_asc_node": 133.8255,
        "meta_arg_of_pericenter": 264.3901,
        "meta_mean_anomaly": 354.9509,
        "meta_ephemeris_type": 0,
        "meta_classification_type": "U",
        "meta_norad_cat_id": 66497,
        "meta_element_set_no": 999,
        "meta_rev_at_epoch": 539,
        "meta_bstar": -0.0013211844,
        "meta_mean_motion_dot": -0.00077176,
        "meta_mean_motion_ddot": 0,
        "tle_line1": "1 66497U 25263N   25345.25003472 -.00077176  00000+0 -13212-2 0  9992",
        "tle_line2": "2 66497  43.0007 133.8255 0001531 264.3901 354.9509 15.50610511  5397"
      },
      "geometry": {
        "type": "Point",
        "coordinates": [
          165.77641884369942,
          27.743219221641628
        ]
      }
    },
    {
      "type": "Feature",
      "properties": {
        "norad_id": 66498,
        "name": "STARLINK-35907",
        "group": "last-30-days",
        "lat": -1.7027581177441877,
        "lon": 129.69616820267842,
        "alt_km": 444.7165314313579,
        "timestamp": "2025-12-11T15:53:38.292721+00:00",
        "meta_object_name": "STARLINK-35907",
        "meta_object_id": "2025-263P",
        "meta_epoch": "2025-12-11T06:00:02.999808",
        "meta_mean_motion": 15.41025874,
        "meta_eccentricity": 0.00013159,
        "meta_inclination": 43.0007,
        "meta_ra_of_asc_node": 133.9004,
        "meta_arg_of_pericenter": 261.2035,
        "meta_mean_anomaly": 327.2172,
        "meta_ephemeris_type": 0,
        "meta_classification_type": "U",
        "meta_norad_cat_id": 66498,
        "meta_element_set_no": 999,
        "meta_rev_at_epoch": 539,
        "meta_bstar": -0.015743867,
        "meta_mean_motion_dot": -0.00614172,
        "meta_mean_motion_ddot": 0,
        "tle_line1": "1 66498U 25263P   25345.25003472 -.00614172  00000+0 -15744-1 0  9997",
        "tle_line2": "2 66498  43.0007 133.9004 0001315 261.2035 327.2172 15.41025874  5396"
      },
      "geometry": {
        "type": "Point",
        "coordinates": [
          129.69616820267842,
          -1.7027581177441877
        ]
      }
    },
    {
      "type": "Feature",
      "properties": {
        "norad_id": 66499,
        "name": "STARLINK-35816",
        "group": "last-30-days",
        "lat": 20.466698556441678,
        "lon": 155.05353397330057,
        "alt_km": 431.920076042461,
        "timestamp": "2025-12-11T15:53:38.292734+00:00",
        "meta_object_name": "STARLINK-35816",
        "meta_object_id": "2025-263Q",
        "meta_epoch": "2025-12-11T06:00:02.999808",
        "meta_mean_motion": 15.45729064,
        "meta_eccentricity": 0.00012731,
        "meta_inclination": 43.0009,
        "meta_ra_of_asc_node": 133.8345,
        "meta_arg_of_pericenter": 261.8937,
        "meta_mean_anomaly": 353.8429,
        "meta_ephemeris_type": 0,
        "meta_classification_type": "U",
        "meta_norad_cat_id": 66499,
        "meta_element_set_no": 999,
        "meta_rev_at_epoch": 539,
        "meta_bstar": -0.046491304,
        "meta_mean_motion_dot": -0.02047069,
        "meta_mean_motion_ddot": 0,
        "tle_line1": "1 66499U 25263Q   25345.25003472 -.02047069  00000+0 -46491-1 0  9998",
        "tle_line2": "2 66499  43.0009 133.8345 0001273 261.8937 353.8429 15.45729064  5392"
      },
      "geometry": {
        "type": "Point",
        "coordinates": [
          155.05353397330057,
          20.466698556441678
        ]
      }
    },
    {
      "type": "Feature",
      "properties": {
        "norad_id": 66500,
        "name": "STARLINK-35894",
        "group": "last-30-days",
        "lat": -19.027908011961912,
        "lon": 109.86832034254644,
        "alt_km": 440.3296814136993,
        "timestamp": "2025-12-11T15:53:38.292744+00:00",
        "meta_object_name": "STARLINK-35894",
        "meta_object_id": "2025-263R",
        "meta_epoch": "2025-12-11T06:00:02.999808",
        "meta_mean_motion": 15.43995435,
        "meta_eccentricity": 0.00013677,
        "meta_inclination": 43.0003,
        "meta_ra_of_asc_node": 133.9743,
        "meta_arg_of_pericenter": 270.4192,
        "meta_mean_anomaly": 288.3155,
        "meta_ephemeris_type": 0,
        "meta_classification_type": "U",
        "meta_norad_cat_id": 66500,
        "meta_element_set_no": 999,
        "meta_rev_at_epoch": 539,
        "meta_bstar": -0.043437263,
        "meta_mean_motion_dot": -0.01825778,
        "meta_mean_motion_ddot": 0,
        "tle_line1": "1 66500U 25263R   25345.25003472 -.01825778  00000+0 -43437-1 0  9998",
        "tle_line2": "2 66500  43.0003 133.9743 0001367 270.4192 288.3155 15.43995435  5398"
      },
      "geometry": {
        "type": "Point",
        "coordinates": [
          109.86832034254644,
          -19.027908011961912
        ]
      }
    },
    {
      "type": "Feature",
      "properties": {
        "norad_id": 66501,
        "name": "STARLINK-35897",
        "group": "last-30-days",
        "lat": 28.812185197598648,
        "lon": 167.5831993634058,
        "alt_km": 422.51699994065984,
        "timestamp": "2025-12-11T15:53:38.292756+00:00",
        "meta_object_name": "STARLINK-35897",
        "meta_object_id": "2025-263S",
        "meta_epoch": "2025-12-11T06:00:02.999808",
        "meta_mean_motion": 15.48645119,
        "meta_eccentricity": 0.00015922,
        "meta_inclination": 43.0004,
        "meta_ra_of_asc_node": 133.8097,
        "meta_arg_of_pericenter": 258.7209,
        "meta_mean_anomaly": 6.809,
        "meta_ephemeris_type": 0,
        "meta_classification_type": "U",
        "meta_norad_cat_id": 66501,
        "meta_element_set_no": 999,
        "meta_rev_at_epoch": 539,
        "meta_bstar": -0.042526184,
        "meta_mean_motion_dot": -0.02071313,
        "meta_mean_motion_ddot": 0,
        "tle_line1": "1 66501U 25263S   25345.25003472 -.02071313  00000+0 -42526-1 0  9996",
        "tle_line2": "2 66501  43.0004 133.8097 0001592 258.7209   6.8090 15.48645119  5396"
      },
      "geometry": {
        "type": "Point",
        "coordinates": [
          167.5831993634058,
          28.812185197598648
        ]
      }
    }
  ]
}